ALOS (DAICHI)           
1 28931U 06002A   26078.85049379  .00001184  00000+0  20643-3 0  9990
2 28931  98.1237  34.7562 0000713  82.4376 277.6911 14.69840946 74974
H-2A R/B                
1 28932U 06002B   26079.29811103  .00007735  00000+0  38595-3 0  9995
2 28932  98.2431 227.2370 0052187 204.6545 155.2190 15.16634784 96042
RESURS-DK 1             
1 29228U 06021A   26078.78442465  .00002533  00000+0  14998-3 0  9991
2 29228  69.9337 210.9089 0000856 135.2424 224.8811 15.12812447 89054
CZ-4B R/B               
1 29507U 06046C   26079.09738446  .00003755  00000+0  19113-3 0  9991
2 29507  97.5569 123.9778 0032008 229.5853 130.2587 15.17003198 61626
CZ-2C R/B               
1 31114U 07010B   26079.29342478  .00000108  00000+0  68674-4 0  9994
2 31114  98.3988 192.0412 0057853 263.1763  96.2830 14.20249848981224
COSMO-SKYMED 1          
1 31598U 07023A   26079.29526488  .00002238  00000+0  20166-3 0  9998
2 31598  97.8881 270.4138 0001401  87.1538 272.9843 14.96615064 16499
COSMOS 2428             
1 31792U 07029A   26079.29556120 -.00000015  00000+0  17825-4 0  9997
2 31792  70.9441 181.0837 0009523 266.2413  93.7619 14.12947536965591
SL-16 R/B               
1 31793U 07029B   26079.31088341  .00000343  00000+0  20271-3 0  9997
2 31793  70.9756 150.0596 0002350 276.5620 148.1590 14.14839371966878
KORONAS-FOTON           
1 33504U 09003A   26079.26711629  .00009780  00000+0  21642-3 0  9996
2 33504  82.4267 264.8771 0011777 115.2615 244.9854 15.43565140947375
CZ-2C R/B               
1 37731U 11030B   26078.87141723  .00001389  00000+0  18115-3 0  9991
2 37731  97.8563  35.9320 0051566 318.6211  57.6131 14.81258787791605
H-2A R/B                
1 38341U 12025E   26078.90055795  .00002745  00000+0  25130-3 0  9993
2 38341  98.4745  46.7654 0043143 279.7412  79.8935 14.95236073749749
SHIJIAN-16 (SJ-16)      
1 39358U 13057A   26079.28804709  .00001146  00000+0  11459-3 0  9990
2 39358  74.9739 165.0264 0015273  85.1356 275.1576 14.92388361673081
SL-4 R/B                
1 39679U 14021B   26079.27566410  .00010184  00000+0  22634-3 0  9990
2 39679  51.6054 285.6209 0096679 141.5209 219.2721 15.39505994657909
ALOS-2                  
1 39766U 14029A   26079.26920361  .00000473  00000+0  70265-4 0  9997
2 39766  97.9196 177.7130 0001787 110.4787 249.6617 14.79409943638430
YAOGAN-29               
1 41038U 15069A   26079.25261647  .00000632  00000+0  84388-4 0  9999
2 41038  98.0126 107.7098 0001183  22.3746 337.7518 14.83007977557448
ASTRO-H (HITOMI)        
1 41337U 16012A   26079.27639138  .00002453  00000+0  14125-3 0  9990
2 41337  30.9992 288.2263 0009610  77.6091 282.5623 15.10069101553835
