[{"OBJECT_NAME":"ALOS (DAICHI)","OBJECT_ID":"2006-002A","EPOCH":"2026-03-19T20:24:42.663456","MEAN_MOTION":14.69840946,"ECCENTRICITY":7.137e-5,"INCLINATION":98.1237,"RA_OF_ASC_NODE":34.7562,"ARG_OF_PERICENTER":82.4376,"MEAN_ANOMALY":277.6911,"EPHEMERIS_TYPE":0,"CLASSIFICATION_TYPE":"U","NORAD_CAT_ID":28931,"ELEMENT_SET_NO":999,"REV_AT_EPOCH":7497,"BSTAR":0.00020642889,"MEAN_MOTION_DOT":1.184e-5,"MEAN_MOTION_DDOT":0},{"OBJECT_NAME":"H-2A R/B","OBJECT_ID":"2006-002B","EPOCH":"2026-03-20T07:09:16.792992","MEAN_MOTION":15.16634784,"ECCENTRICITY":0.00521878,"INCLINATION":98.2431,"RA_OF_ASC_NODE":227.237,"ARG_OF_PERICENTER":204.6545,"MEAN_ANOMALY":155.219,"EPHEMERIS_TYPE":0,"CLASSIFICATION_TYPE":"U","NORAD_CAT_ID":28932,"ELEMENT_SET_NO":999,"REV_AT_EPOCH":9604,"BSTAR":0.00038594973,"MEAN_MOTION_DOT":7.735e-5,"MEAN_MOTION_DDOT":0},{"OBJECT_NAME":"RESURS-DK 1","OBJECT_ID":"2006-021A","EPOCH":"2026-03-19T18:49:34.289760","MEAN_MOTION":15.12812447,"ECCENTRICITY":8.562e-5,"INCLINATION":69.9337,"RA_OF_ASC_NODE":210.9089,"ARG_OF_PERICENTER":135.2424,"MEAN_ANOMALY":224.8811,"EPHEMERIS_TYPE":0,"CLASSIFICATION_TYPE":"U","NORAD_CAT_ID":29228,"ELEMENT_SET_NO":999,"REV_AT_EPOCH":8905,"BSTAR":0.00014998384,"MEAN_MOTION_DOT":2.533e-5,"MEAN_MOTION_DDOT":0},{"OBJECT_NAME":"CZ-4B R/B","OBJECT_ID":"2006-046C","EPOCH":"2026-03-20T02:20:14.017344","MEAN_MOTION":15.17003198,"ECCENTRICITY":0.00320088,"INCLINATION":97.5569,"RA_OF_ASC_NODE":123.9778,"ARG_OF_PERICENTER":229.5853,"MEAN_ANOMALY":130.2587,"EPHEMERIS_TYPE":0,"CLASSIFICATION_TYPE":"U","NORAD_CAT_ID":29507,"ELEMENT_SET_NO":999,"REV_AT_EPOCH":6162,"BSTAR":0.00019112665,"MEAN_MOTION_DOT":3.755e-5,"MEAN_MOTION_DDOT":0},{"OBJECT_NAME":"CZ-2C R/B","OBJECT_ID":"2007-010B","EPOCH":"2026-03-20T07:02:31.900992","MEAN_MOTION":14.20249848,"ECCENTRICITY":0.00578531,"INCLINATION":98.3988,"RA_OF_ASC_NODE":192.0412,"ARG_OF_PERICENTER":263.1763,"MEAN_ANOMALY":96.283,"EPHEMERIS_TYPE":0,"CLASSIFICATION_TYPE":"U","NORAD_CAT_ID":31114,"ELEMENT_SET_NO":999,"REV_AT_EPOCH":98122,"BSTAR":6.8674449e-5,"MEAN_MOTION_DOT":1.08e-6,"MEAN_MOTION_DDOT":0},{"OBJECT_NAME":"COSMO-SKYMED 1","OBJECT_ID":"2007-023A","EPOCH":"2026-03-20T07:05:10.885632","MEAN_MOTION":14.96615064,"ECCENTRICITY":0.00014015,"INCLINATION":97.8881,"RA_OF_ASC_NODE":270.4138,"ARG_OF_PERICENTER":87.1538,"MEAN_ANOMALY":272.9843,"EPHEMERIS_TYPE":0,"CLASSIFICATION_TYPE":"U","NORAD_CAT_ID":31598,"ELEMENT_SET_NO":999,"REV_AT_EPOCH":1649,"BSTAR":0.00020166175,"MEAN_MOTION_DOT":2.238e-5,"MEAN_MOTION_DDOT":0},{"OBJECT_NAME":"COSMOS 2428","OBJECT_ID":"2007-029A","EPOCH":"2026-03-20T07:05:36.487680","MEAN_MOTION":14.12947536,"ECCENTRICITY":0.00095239,"INCLINATION":70.9441,"RA_OF_ASC_NODE":181.0837,"ARG_OF_PERICENTER":266.2413,"MEAN_ANOMALY":93.7619,"EPHEMERIS_TYPE":0,"CLASSIFICATION_TYPE":"U","NORAD_CAT_ID":31792,"ELEMENT_SET_NO":999,"REV_AT_EPOCH":96559,"BSTAR":1.7825355e-5,"MEAN_MOTION_DOT":-1.5e-7,"MEAN_MOTION_DDOT":0},{"OBJECT_NAME":"SL-16 R/B","OBJECT_ID":"2007-029B","EPOCH":"2026-03-20T07:27:40.326624","MEAN_MOTION":14.14839371,"ECCENTRICITY":0.00023507,"INCLINATION":70.9756,"RA_OF_ASC_NODE":150.0596,"ARG_OF_PERICENTER":276.562,"MEAN_ANOMALY":148.159,"EPHEMERIS_TYPE":0,"CLASSIFICATION_TYPE":"U","NORAD_CAT_ID":31793,"ELEMENT_SET_NO":999,"REV_AT_EPOCH":96687,"BSTAR":0.00020270518,"MEAN_MOTION_DOT":3.43e-6,"MEAN_MOTION_DDOT":0},{"OBJECT_NAME":"KORONAS-FOTON","OBJECT_ID":"2009-003A","EPOCH":"2026-03-20T06:24:38.847456","MEAN_MOTION":15.4356514,"ECCENTRICITY":0.0011777,"INCLINATION":82.4267,"RA_OF_ASC_NODE":264.8771,"ARG_OF_PERICENTER":115.2615,"MEAN_ANOMALY":244.9854,"EPHEMERIS_TYPE":0,"CLASSIFICATION_TYPE":"U","NORAD_CAT_ID":33504,"ELEMENT_SET_NO":999,"REV_AT_EPOCH":94737,"BSTAR":0.00021641815,"MEAN_MOTION_DOT":9.78e-5,"MEAN_MOTION_DDOT":0},{"OBJECT_NAME":"CZ-2C R/B","OBJECT_ID":"2011-030B","EPOCH":"2026-03-19T20:54:50.448672","MEAN_MOTION":14.81258787,"ECCENTRICITY":0.0051566,"INCLINATION":97.8563,"RA_OF_ASC_NODE":35.932,"ARG_OF_PERICENTER":318.6211,"MEAN_ANOMALY":57.6131,"EPHEMERIS_TYPE":0,"CLASSIFICATION_TYPE":"U","NORAD_CAT_ID":37731,"ELEMENT_SET_NO":999,"REV_AT_EPOCH":79160,"BSTAR":0.00018114584,"MEAN_MOTION_DOT":1.389e-5,"MEAN_MOTION_DDOT":0},{"OBJECT_NAME":"H-2A R/B","OBJECT_ID":"2012-025E","EPOCH":"2026-03-19T21:36:48.206880","MEAN_MOTION":14.95236073,"ECCENTRICITY":0.0043143,"INCLINATION":98.4745,"RA_OF_ASC_NODE":46.7654,"ARG_OF_PERICENTER":279.7412,"MEAN_ANOMALY":79.8935,"EPHEMERIS_TYPE":0,"CLASSIFICATION_TYPE":"U","NORAD_CAT_ID":38341,"ELEMENT_SET_NO":999,"REV_AT_EPOCH":74974,"BSTAR":0.0002513,"MEAN_MOTION_DOT":2.745e-5,"MEAN_MOTION_DDOT":0},{"OBJECT_NAME":"SHIJIAN-16 (SJ-16)","OBJECT_ID":"2013-057A","EPOCH":"2026-03-20T06:54:47.268576","MEAN_MOTION":14.92388361,"ECCENTRICITY":0.00152738,"INCLINATION":74.9739,"RA_OF_ASC_NODE":165.0264,"ARG_OF_PERICENTER":85.1356,"MEAN_ANOMALY":275.1576,"EPHEMERIS_TYPE":0,"CLASSIFICATION_TYPE":"U","NORAD_CAT_ID":39358,"ELEMENT_SET_NO":999,"REV_AT_EPOCH":67308,"BSTAR":0.00011459385,"MEAN_MOTION_DOT":1.146e-5,"MEAN_MOTION_DDOT":0},{"OBJECT_NAME":"SL-4 R/B","OBJECT_ID":"2014-021B","EPOCH":"2026-03-20T06:36:57.378240","MEAN_MOTION":15.39505994,"ECCENTRICITY":0.00966798,"INCLINATION":51.6054,"RA_OF_ASC_NODE":285.6209,"ARG_OF_PERICENTER":141.5209,"MEAN_ANOMALY":219.2721,"EPHEMERIS_TYPE":0,"CLASSIFICATION_TYPE":"U","NORAD_CAT_ID":39679,"ELEMENT_SET_NO":999,"REV_AT_EPOCH":65790,"BSTAR":0.00022634397,"MEAN_MOTION_DOT":0.00010184,"MEAN_MOTION_DDOT":0},{"OBJECT_NAME":"ALOS-2","OBJECT_ID":"2014-029A","EPOCH":"2026-03-20T06:27:39.191904","MEAN_MOTION":14.79409943,"ECCENTRICITY":0.00017876,"INCLINATION":97.9196,"RA_OF_ASC_NODE":177.713,"ARG_OF_PERICENTER":110.4787,"MEAN_ANOMALY":249.6617,"EPHEMERIS_TYPE":0,"CLASSIFICATION_TYPE":"U","NORAD_CAT_ID":39766,"ELEMENT_SET_NO":999,"REV_AT_EPOCH":63843,"BSTAR":7.0264629e-5,"MEAN_MOTION_DOT":4.73e-6,"MEAN_MOTION_DDOT":0},{"OBJECT_NAME":"YAOGAN-29","OBJECT_ID":"2015-069A","EPOCH":"2026-03-20T06:03:46.063008","MEAN_MOTION":14.83007977,"ECCENTRICITY":0.00011836,"INCLINATION":98.0126,"RA_OF_ASC_NODE":107.7098,"ARG_OF_PERICENTER":22.3746,"MEAN_ANOMALY":337.7518,"EPHEMERIS_TYPE":0,"CLASSIFICATION_TYPE":"U","NORAD_CAT_ID":41038,"ELEMENT_SET_NO":999,"REV_AT_EPOCH":55744,"BSTAR":8.4388495e-5,"MEAN_MOTION_DOT":6.32e-6,"MEAN_MOTION_DDOT":0},{"OBJECT_NAME":"ASTRO-H (HITOMI)","OBJECT_ID":"2016-012A","EPOCH":"2026-03-20T06:38:00.215232","MEAN_MOTION":15.10069101,"ECCENTRICITY":0.00096102,"INCLINATION":30.9992,"RA_OF_ASC_NODE":288.2263,"ARG_OF_PERICENTER":77.6091,"MEAN_ANOMALY":282.5623,"EPHEMERIS_TYPE":0,"CLASSIFICATION_TYPE":"U","NORAD_CAT_ID":41337,"ELEMENT_SET_NO":999,"REV_AT_EPOCH":55383,"BSTAR":0.00014125382,"MEAN_MOTION_DOT":2.453e-5,"MEAN_MOTION_DDOT":0}]
